ONEWEB-0309             
1 49095U 21075W   26177.96073367  .00000019  00000+0  15448-4 0  9991
2 49095  87.9131   3.9182 0002196 100.9196 259.2182 13.17649492234863
ONEWEB-0310             
1 49096U 21075X   26177.91773592  .00000400  00000+0  10766-2 0  9994
2 49096  87.8942 348.7443 0001822  93.3651 266.7686 13.12443153236460
ONEWEB-0311             
1 49097U 21075Y   26177.89153959  .00000105  00000+0  23696-3 0  9990
2 49097  87.9134   3.9318 0002114  78.7613 281.3756 13.17651281234902
ONEWEB-0312             
1 49098U 21075Z   26177.90672455 -.00000093  00000+0 -27269-3 0  9998
2 49098  87.9132   3.9393 0002191  89.2123 270.9260 13.17648810234887
ONEWEB-0313             
1 49099U 21075AA  26177.91165916  .00000025  00000+0  30249-4 0  9995
2 49099  87.9129   3.9438 0001965  86.7180 273.4176 13.17648991234870
ONEWEB-0314             
1 49100U 21075AB  26177.95399019  .00000025  00000+0  30797-4 0  9993
2 49100  87.9141   3.9091 0002243  87.7224 272.4165 13.17649653234853
ONEWEB-0315             
1 49101U 21075AC  26177.96685175 -.00000419  00000+0 -12001-2 0  9991
2 49101  87.8951 348.6994 0001914  80.6930 279.4415 13.12442223236455
ONEWEB-0316             
1 49102U 21075AD  26177.94686275  .00000348  00000+0  84975-3 0  9991
2 49102  87.9175 333.5138 0003123  91.1714 268.9776 13.18675085238498
ONEWEB-0317             
1 49103U 21075AE  26177.89400459 -.00000490  00000+0 -13980-2 0  9991
2 49103  87.8954 348.7380 0001916 115.1513 244.9815 13.12443325236469
ONEWEB-0318             
1 49104U 21075AF  26177.94350885 -.00000032  00000+0 -11301-3 0  9993
2 49104  87.9175 333.5165 0001790  88.9740 271.1597 13.18662135238456
ONEWEB-0319             
1 49105U 21075AG  26177.89323154  .00000051  00000+0  97457-4 0  9993
2 49105  87.9132   3.9366 0001991  74.2914 285.8437 13.17649662234882
ONEWEB-0323             
1 49106U 21075AH  26177.95160978 -.00000218  00000+0 -64137-3 0  9999
2 49106  87.8953 348.7075 0002110  78.4676 281.6690 13.12440957235837
ONEWEB-0329             
1 49107U 21075AJ  26177.90167124  .00000067  00000+0  13966-3 0  9999
2 49107  87.9134   3.9358 0002009  88.1676 271.9686 13.17650099234863
ONEWEB-0330             
1 49108U 21075AK  26178.00003472  .00014283  00000+0  35878-1 0  9996
2 49108  87.9129   3.9325 0002127  92.6384 304.2455 13.19179016  4922
ONEWEB-0292             
1 49186U 21083A   26177.91628139  .00001297  00000+0  35178-2 0  9998
2 49186  87.8959 318.3006 0001761  93.0989 267.0342 13.13464609232200
ONEWEB-0303             
1 49187U 21083B   26177.94013548 -.00000059  00000+0 -18314-3 0  9995
2 49187  87.9173 333.5157 0001897  89.7761 270.3589 13.18686550231267
ONEWEB-0306             
1 49188U 21083C   26177.93001171 -.00000019  00000+0 -79787-4 0  9992
2 49188  87.9178 333.5060 0001869 101.7051 258.4291 13.18687349231301
ONEWEB-0307             
1 49189U 21083D   26177.91036669  .00000250  00000+0  65006-3 0  9994
2 49189  87.8961 318.2993 0001924  94.5706 265.5643 13.13470970232209
ONEWEB-0320             
1 49190U 21083E   26177.95025068  .00000023  00000+0  25269-4 0  9997
2 49190  87.9168 333.5191 0001820  96.3668 263.7671 13.18686018231266
ONEWEB-0321             
1 49191U 21083F   26177.82215350  .00000002  00000+0 -28026-4 0  9991
2 49191  87.9194 272.5150 0001986 108.2657 251.8692 13.20772355238101
ONEWEB-0322             
1 49192U 21083G   26177.90614082  .00000182  00000+0  46322-3 0  9992
2 49192  87.8960 318.3004 0001560 109.7327 250.3970 13.13471718232194
ONEWEB-0324             
1 49193U 21083H   26177.92327972 -.00000040  00000+0 -13340-3 0  9993
2 49193  87.9180 333.5129 0002030  97.2071 262.9292 13.18685649231287
ONEWEB-0325             
1 49194U 21083J   26177.92665143  .00000003  00000+0 -23909-4 0  9990
2 49194  87.9167 333.5196 0001768  93.4830 266.6505 13.18685939231296
ONEWEB-0326             
1 49195U 21083K   26177.94197158 -.00000047  00000+0 -15111-3 0  9993
2 49195  87.9178 333.5150 0001863  86.2899 273.8446 13.18685185231286
ONEWEB-0327             
1 49196U 21083L   26177.94169122 -.00000083  00000+0 -24267-3 0  9996
2 49196  87.9168 333.5187 0001725  82.3029 277.8299 13.18685336231306
ONEWEB-0328             
1 49197U 21083M   26177.89597379 -.00000089  00000+0 -27859-3 0  9996
2 49197  87.8970 318.2763 0002010  99.0486 261.0870 13.13470876232179
ONEWEB-0331             
1 49198U 21083N   26177.93506902  .00000031  00000+0  45321-4 0  9994
2 49198  87.9178 333.5103 0001962  84.8449 275.2907 13.18687081231298
ONEWEB-0333             
1 49199U 21083P   26177.89089254 -.00000229  00000+0 -66089-3 0  9990
2 49199  87.8959 318.3028 0001791  97.5053 262.6280 13.13471036232183
ONEWEB-0334             
1 49200U 21083Q   26177.76070016  .00000080  00000+0  16557-3 0  9993
2 49200  87.9193 272.5369 0001678 124.0293 236.0999 13.20773429238055
ONEWEB-0335             
1 49201U 21083R   26177.88580936 -.00000297  00000+0 -84855-3 0  9992
2 49201  87.8961 318.3010 0001944  93.0450 267.0902 13.13471204232191
