OBJECT_NAME,OBJECT_ID,EPOCH,MEAN_MOTION,ECCENTRICITY,INCLINATION,RA_OF_ASC_NODE,ARG_OF_PERICENTER,MEAN_ANOMALY,EPHEMERIS_TYPE,CLASSIFICATION_TYPE,NORAD_CAT_ID,ELEMENT_SET_NO,REV_AT_EPOCH,BSTAR,MEAN_MOTION_DOT,MEAN_MOTION_DDOT
ONEWEB-0309,2021-075W,2026-06-26T23:03:27.389088,13.17649492,.0002196,87.9131,3.9182,100.9196,259.2182,0,U,49095,999,23486,.15448078E-4,.19E-6,0
ONEWEB-0310,2021-075X,2026-06-26T22:01:32.383488,13.12443153,.00018225,87.8942,348.7443,93.3651,266.7686,0,U,49096,999,23646,.10765516E-2,.4E-5,0
ONEWEB-0311,2021-075Y,2026-06-26T21:23:49.020576,13.17651281,.0002114,87.9134,3.9318,78.7613,281.3756,0,U,49097,999,23490,.2369626E-3,.105E-5,0
ONEWEB-0312,2021-075Z,2026-06-26T21:45:41.001120,13.17648810,.00021916,87.9132,3.9393,89.2123,270.9260,0,U,49098,999,23488,-.27269416E-3,-.93E-6,0
ONEWEB-0313,2021-075AA,2026-06-26T21:52:47.351424,13.17648991,.00019652,87.9129,3.9438,86.7180,273.4176,0,U,49099,999,23487,.30249265E-4,.25E-6,0
ONEWEB-0314,2021-075AB,2026-06-26T22:53:44.752416,13.17649653,.00022434,87.9141,3.9091,87.7224,272.4165,0,U,49100,999,23485,.30797272E-4,.25E-6,0
ONEWEB-0315,2021-075AC,2026-06-26T23:12:15.991200,13.12442223,.00019149,87.8951,348.6994,80.6930,279.4415,0,U,49101,999,23645,-.12000667E-2,-.419E-5,0
ONEWEB-0316,2021-075AD,2026-06-26T22:43:28.941600,13.18675085,.00031238,87.9175,333.5138,91.1714,268.9776,0,U,49102,999,23849,.84975011E-3,.348E-5,0
ONEWEB-0317,2021-075AE,2026-06-26T21:27:21.996576,13.12443325,.00019161,87.8954,348.7380,115.1513,244.9815,0,U,49103,999,23646,-.13980408E-2,-.49E-5,0
ONEWEB-0318,2021-075AF,2026-06-26T22:38:39.164640,13.18662135,.00017907,87.9175,333.5165,88.9740,271.1597,0,U,49104,999,23845,-.11301463E-3,-.32E-6,0
ONEWEB-0319,2021-075AG,2026-06-26T21:26:15.205056,13.17649662,.00019915,87.9132,3.9366,74.2914,285.8437,0,U,49105,999,23488,.97456859E-4,.51E-6,0
ONEWEB-0323,2021-075AH,2026-06-26T22:50:19.084992,13.12440957,.00021104,87.8953,348.7075,78.4676,281.6690,0,U,49106,999,23583,-.64136609E-3,-.218E-5,0
ONEWEB-0329,2021-075AJ,2026-06-26T21:38:24.395136,13.17650099,.00020099,87.9134,3.9358,88.1676,271.9686,0,U,49107,999,23486,.13965852E-3,.67E-6,0
ONEWEB-0330,2021-075AK,2026-06-27T00:00:02.999808,13.19179016,.00021273,87.9129,3.9325,92.6384,304.2455,0,U,49108,999,492,.358781E-1,.14283E-3,0
ONEWEB-0292,2021-083A,2026-06-26T21:59:26.712096,13.13464609,.00017614,87.8959,318.3006,93.0989,267.0342,0,U,49186,999,23220,.35177958E-2,.1297E-4,0
ONEWEB-0303,2021-083B,2026-06-26T22:33:47.705472,13.18686550,.00018971,87.9173,333.5157,89.7761,270.3589,0,U,49187,999,23126,-.18314375E-3,-.59E-6,0
ONEWEB-0306,2021-083C,2026-06-26T22:19:13.011744,13.18687349,.00018693,87.9178,333.5060,101.7051,258.4291,0,U,49188,999,23130,-.79786556E-4,-.19E-6,0
ONEWEB-0307,2021-083D,2026-06-26T21:50:55.682016,13.13470970,.00019246,87.8961,318.2993,94.5706,265.5643,0,U,49189,999,23220,.65005575E-3,.25E-5,0
ONEWEB-0320,2021-083E,2026-06-26T22:48:21.658752,13.18686018,.00018206,87.9168,333.5191,96.3668,263.7671,0,U,49190,999,23126,.25268725E-4,.23E-6,0
ONEWEB-0321,2021-083F,2026-06-26T19:43:54.062400,13.20772355,.0001986,87.9194,272.5150,108.2657,251.8692,0,U,49191,999,23810,-.28026217E-4,.2E-7,0
ONEWEB-0322,2021-083G,2026-06-26T21:44:50.566848,13.13471718,.000156,87.8960,318.3004,109.7327,250.3970,0,U,49192,999,23219,.46322397E-3,.182E-5,0
ONEWEB-0324,2021-083H,2026-06-26T22:09:31.367808,13.18685649,.00020304,87.9180,333.5129,97.2071,262.9292,0,U,49193,999,23128,-.13339595E-3,-.4E-6,0
ONEWEB-0325,2021-083J,2026-06-26T22:14:22.683552,13.18685939,.00017681,87.9167,333.5196,93.4830,266.6505,0,U,49194,999,23129,-.23908566E-4,.3E-7,0
ONEWEB-0326,2021-083K,2026-06-26T22:36:26.344512,13.18685185,.00018638,87.9178,333.5150,86.2899,273.8446,0,U,49195,999,23128,-.15111368E-3,-.47E-6,0
ONEWEB-0327,2021-083L,2026-06-26T22:36:02.121408,13.18685336,.00017251,87.9168,333.5187,82.3029,277.8299,0,U,49196,999,23130,-.24267312E-3,-.83E-6,0
ONEWEB-0328,2021-083M,2026-06-26T21:30:12.135456,13.13470876,.00020102,87.8970,318.2763,99.0486,261.0870,0,U,49197,999,23217,-.27859229E-3,-.89E-6,0
ONEWEB-0331,2021-083N,2026-06-26T22:26:29.963328,13.18687081,.00019624,87.9178,333.5103,84.8449,275.2907,0,U,49198,999,23129,.45321351E-4,.31E-6,0
ONEWEB-0333,2021-083P,2026-06-26T21:22:53.115456,13.13471036,.00017912,87.8959,318.3028,97.5053,262.6280,0,U,49199,999,23218,-.66088643E-3,-.229E-5,0
ONEWEB-0334,2021-083Q,2026-06-26T18:15:24.493824,13.20773429,.00016784,87.9193,272.5369,124.0293,236.0999,0,U,49200,999,23805,.16557256E-3,.8E-6,0
ONEWEB-0335,2021-083R,2026-06-26T21:15:33.928704,13.13471204,.00019445,87.8961,318.3010,93.0450,267.0902,0,U,49201,999,23219,-.84854506E-3,-.297E-5,0
